{
  "type": "FeatureCollection",
  "features": [
    {
      "type": "Feature",
      "properties": {
        "norad_id": 66516,
        "name": "STARLINK-35924",
        "group": "last-30-days",
        "lat": 18.73202419536503,
        "lon": 124.39691332509244,
        "alt_km": 345.197285523911,
        "timestamp": "2025-12-04T10:51:48.876303+00:00",
        "meta_object_name": "STARLINK-35924",
        "meta_object_id": "2025-265A",
        "meta_epoch": "2025-12-04T04:00:03.000096",
        "meta_mean_motion": 15.75127595,
        "meta_eccentricity": 0.0001325,
        "meta_inclination": 42.9998,
        "meta_ra_of_asc_node": 104.7901,
        "meta_arg_of_pericenter": 267.7683,
        "meta_mean_anomaly": 297.5734,
        "meta_ephemeris_type": 0,
        "meta_classification_type": "U",
        "meta_norad_cat_id": 66516,
        "meta_element_set_no": 999,
        "meta_rev_at_epoch": 359,
        "meta_bstar": -0.013937,
        "meta_mean_motion_dot": -0.01873126,
        "meta_mean_motion_ddot": 0,
        "tle_line1": "1 66516U 25265A   25338.16670139 -.01873126  00000+0 -13937-1 0  9991",
        "tle_line2": "2 66516  42.9998 104.7901 0001325 267.7683 297.5734 15.75127595  3590"
      },
      "geometry": {
        "type": "Point",
        "coordinates": [
          124.39691332509244,
          18.73202419536503
        ]
      }
    },
    {
      "type": "Feature",
      "properties": {
        "norad_id": 66517,
        "name": "STARLINK-35937",
        "group": "last-30-days",
        "lat": 19.932539545094993,
        "lon": 125.95444727175746,
        "alt_km": 345.1405631284242,
        "timestamp": "2025-12-04T10:51:48.876314+00:00",
        "meta_object_name": "STARLINK-35937",
        "meta_object_id": "2025-265B",
        "meta_epoch": "2025-12-04T04:00:03.000096",
        "meta_mean_motion": 15.75195961,
        "meta_eccentricity": 0.0001252,
        "meta_inclination": 42.9999,
        "meta_ra_of_asc_node": 104.7858,
        "meta_arg_of_pericenter": 257.5172,
        "meta_mean_anomaly": 309.6847,
        "meta_ephemeris_type": 0,
        "meta_classification_type": "U",
        "meta_norad_cat_id": 66517,
        "meta_element_set_no": 999,
        "meta_rev_at_epoch": 361,
        "meta_bstar": -0.01455,
        "meta_mean_motion_dot": -0.01949212,
        "meta_mean_motion_ddot": 0,
        "tle_line1": "1 66517U 25265B   25338.16670139 -.01949212  00000+0 -14550-1 0  9994",
        "tle_line2": "2 66517  42.9999 104.7858 0001252 257.5172 309.6847 15.75195961  3617"
      },
      "geometry": {
        "type": "Point",
        "coordinates": [
          125.95444727175746,
          19.932539545094993
        ]
      }
    },
    {
      "type": "Feature",
      "properties": {
        "norad_id": 66518,
        "name": "STARLINK-35962",
        "group": "last-30-days",
        "lat": 21.130451065809144,
        "lon": 127.55070285458241,
        "alt_km": 344.9697035823201,
        "timestamp": "2025-12-04T10:51:48.876326+00:00",
        "meta_object_name": "STARLINK-35962",
        "meta_object_id": "2025-265C",
        "meta_epoch": "2025-12-04T04:00:03.000096",
        "meta_mean_motion": 15.75179021,
        "meta_eccentricity": 0.0001508,
        "meta_inclination": 42.9998,
        "meta_ra_of_asc_node": 104.7809,
        "meta_arg_of_pericenter": 265.3146,
        "meta_mean_anomaly": 303.8122,
        "meta_ephemeris_type": 0,
        "meta_classification_type": "U",
        "meta_norad_cat_id": 66518,
        "meta_element_set_no": 999,
        "meta_rev_at_epoch": 361,
        "meta_bstar": -0.014411,
        "meta_mean_motion_dot": -0.01932108,
        "meta_mean_motion_ddot": 0,
        "tle_line1": "1 66518U 25265C   25338.16670139 -.01932108  00000+0 -14411-1 0  9997",
        "tle_line2": "2 66518  42.9998 104.7809 0001508 265.3146 303.8122 15.75179021  3616"
      },
      "geometry": {
        "type": "Point",
        "coordinates": [
          127.55070285458241,
          21.130451065809144
        ]
      }
    },
    {
      "type": "Feature",
      "properties": {
        "norad_id": 66519,
        "name": "STARLINK-35931",
        "group": "last-30-days",
        "lat": 22.31396500561039,
        "lon": 129.17361974923264,
        "alt_km": 344.8303878615234,
        "timestamp": "2025-12-04T10:51:48.876336+00:00",
        "meta_object_name": "STARLINK-35931",
        "meta_object_id": "2025-265D",
        "meta_epoch": "2025-12-04T04:00:03.000096",
        "meta_mean_motion": 15.75177594,
        "meta_eccentricity": 0.0001458,
        "meta_inclination": 43,
        "meta_ra_of_asc_node": 104.7758,
        "meta_arg_of_pericenter": 263.021,
        "meta_mean_anomaly": 308.0265,
        "meta_ephemeris_type": 0,
        "meta_classification_type": "U",
        "meta_norad_cat_id": 66519,
        "meta_element_set_no": 999,
        "meta_rev_at_epoch": 361,
        "meta_bstar": -0.014392,
        "meta_mean_motion_dot": -0.01929803,
        "meta_mean_motion_ddot": 0,
        "tle_line1": "1 66519U 25265D   25338.16670139 -.01929803  00000+0 -14392-1 0  9994",
        "tle_line2": "2 66519  43.0000 104.7758 0001458 263.0210 308.0265 15.75177594  3615"
      },
      "geometry": {
        "type": "Point",
        "coordinates": [
          129.17361974923264,
          22.31396500561039
        ]
      }
    },
    {
      "type": "Feature",
      "properties": {
        "norad_id": 66520,
        "name": "STARLINK-35952",
        "group": "last-30-days",
        "lat": 23.467507548179324,
        "lon": 130.80533688690048,
        "alt_km": 344.4349509862068,
        "timestamp": "2025-12-04T10:51:48.876347+00:00",
        "meta_object_name": "STARLINK-35952",
        "meta_object_id": "2025-265E",
        "meta_epoch": "2025-12-04T04:00:03.000096",
        "meta_mean_motion": 15.7513344,
        "meta_eccentricity": 0.0001379,
        "meta_inclination": 42.9998,
        "meta_ra_of_asc_node": 104.7708,
        "meta_arg_of_pericenter": 274.2213,
        "meta_mean_anomaly": 298.7446,
        "meta_ephemeris_type": 0,
        "meta_classification_type": "U",
        "meta_norad_cat_id": 66520,
        "meta_element_set_no": 999,
        "meta_rev_at_epoch": 361,
        "meta_bstar": -0.013897,
        "meta_mean_motion_dot": -0.01868914,
        "meta_mean_motion_ddot": 0,
        "tle_line1": "1 66520U 25265E   25338.16670139 -.01868914  00000+0 -13897-1 0  9990",
        "tle_line2": "2 66520  42.9998 104.7708 0001379 274.2213 298.7446 15.75133440  3613"
      },
      "geometry": {
        "type": "Point",
        "coordinates": [
          130.80533688690048,
          23.467507548179324
        ]
      }
    },
    {
      "type": "Feature",
      "properties": {
        "norad_id": 66521,
        "name": "STARLINK-35915",
        "group": "last-30-days",
        "lat": 24.609126350094826,
        "lon": 132.4739517899787,
        "alt_km": 344.5353423343495,
        "timestamp": "2025-12-04T10:51:48.876360+00:00",
        "meta_object_name": "STARLINK-35915",
        "meta_object_id": "2025-265F",
        "meta_epoch": "2025-12-04T04:00:03.000096",
        "meta_mean_motion": 15.75018483,
        "meta_eccentricity": 9.39e-05,
        "meta_inclination": 42.9997,
        "meta_ra_of_asc_node": 104.7659,
        "meta_arg_of_pericenter": 254.2745,
        "meta_mean_anomaly": 320.6781,
        "meta_ephemeris_type": 0,
        "meta_classification_type": "U",
        "meta_norad_cat_id": 66521,
        "meta_element_set_no": 999,
        "meta_rev_at_epoch": 361,
        "meta_bstar": -0.012857,
        "meta_mean_motion_dot": -0.01738098,
        "meta_mean_motion_ddot": 0,
        "tle_line1": "1 66521U 25265F   25338.16670139 -.01738098  00000+0 -12857-1 0  9995",
        "tle_line2": "2 66521  42.9997 104.7659 0000939 254.2745 320.6781 15.75018483  3613"
      },
      "geometry": {
        "type": "Point",
        "coordinates": [
          132.4739517899787,
          24.609126350094826
        ]
      }
    },
    {
      "type": "Feature",
      "properties": {
        "norad_id": 66522,
        "name": "STARLINK-35946",
        "group": "last-30-days",
        "lat": 25.755881861745376,
        "lon": 134.20976828631896,
        "alt_km": 344.31327656775284,
        "timestamp": "2025-12-04T10:51:48.876371+00:00",
        "meta_object_name": "STARLINK-35946",
        "meta_object_id": "2025-265G",
        "meta_epoch": "2025-12-04T04:00:03.000096",
        "meta_mean_motion": 15.75182817,
        "meta_eccentricity": 0.000144,
        "meta_inclination": 42.9998,
        "meta_ra_of_asc_node": 104.7612,
        "meta_arg_of_pericenter": 265.0036,
        "meta_mean_anomaly": 311.7903,
        "meta_ephemeris_type": 0,
        "meta_classification_type": "U",
        "meta_norad_cat_id": 66522,
        "meta_element_set_no": 999,
        "meta_rev_at_epoch": 361,
        "meta_bstar": -0.014434,
        "meta_mean_motion_dot": -0.01934956,
        "meta_mean_motion_ddot": 0,
        "tle_line1": "1 66522U 25265G   25338.16670139 -.01934956  00000+0 -14434-1 0  9990",
        "tle_line2": "2 66522  42.9998 104.7612 0001440 265.0036 311.7903 15.75182817  3615"
      },
      "geometry": {
        "type": "Point",
        "coordinates": [
          134.20976828631896,
          25.755881861745376
        ]
      }
    }
  ]
}